OBJECT_NAME,OBJECT_ID,EPOCH,MEAN_MOTION,ECCENTRICITY,INCLINATION,RA_OF_ASC_NODE,ARG_OF_PERICENTER,MEAN_ANOMALY,EPHEMERIS_TYPE,CLASSIFICATION_TYPE,NORAD_CAT_ID,ELEMENT_SET_NO,REV_AT_EPOCH,BSTAR,MEAN_MOTION_DOT,MEAN_MOTION_DDOT
KAZSTSAT,2018-099AB,2026-06-20T00:47:25.220256,14.99874388,.00086028,97.4272,202.8318,62.2449,297.9646,0,U,43783,999,41173,.1194559E-3,.1425E-4,0
SAUDISAT 5A,2018-102A,2026-06-21T13:15:17.316864,15.28085390,.0011211,97.3063,234.0493,115.7884,244.4513,0,U,43831,999,41634,.15433E-3,.416E-4,0
SAUDISAT 5B,2018-102C,2026-06-21T12:07:05.511360,15.28339783,.0011895,97.3172,237.0803,117.9515,242.2930,0,U,43833,999,41645,.151E-3,.4101E-4,0
GAOFEN-10R,2019-066A,2026-06-21T12:56:34.361376,14.83068474,.0006898,98.0503,126.1503,115.9819,244.2105,0,U,44622,999,36302,.10471E-3,.798E-5,0
CARTOSAT-3,2019-081A,2026-06-21T12:06:06.177024,15.19309359,.0013542,97.4303,234.3026,134.6433,225.5909,0,U,44804,999,36412,.20654E-3,.4302E-4,0
GAOFEN-12 01,2019-082A,2026-06-21T12:58:20.445888,14.80461284,.000213,97.8101,178.8051,65.6428,294.5007,0,U,44819,999,35473,.40353E-4,.258E-5,0
CSG-1,2019-092A,2026-06-21T12:10:08.628384,14.82156000,.0001452,97.8889,356.0469,89.7275,270.4105,0,U,44873,999,35211,.40246E-4,.268E-5,0
NEMO-HD,2020-061F,2026-06-21T11:17:06.842112,15.44668071,.0002107,97.1916,234.3801,78.3538,281.7948,0,U,46277,999,32264,.18934E-3,.874E-4,0
SENTINEL-6A,2020-086A,2026-06-20T06:52:41.968704,12.80930002,.0007932,66.0398,128.6148,270.1789,89.8317,0,U,46984,999,26072,.86498E-4,-.41E-6,0
CAS500-1,2021-022A,2026-06-21T12:56:21.350400,15.20173434,.0003219,97.3894,67.7042,277.4521,82.6348,0,U,47932,999,29142,.22335E-3,.4767E-4,0
GAOFEN-12 02,2021-026A,2026-06-21T13:14:56.228352,14.80298823,.0004005,97.9923,170.7148,204.2706,155.8318,0,U,48079,999,28240,.38176E-4,.238E-5,0
PLEIADES NEO 3,2021-034A,2026-06-21T12:11:04.620768,14.81675289,.0001403,97.8927,247.2126,91.9001,268.2372,0,U,48268,999,27829,.20169E-3,.1535E-4,0
PLEIADES NEO 4,2021-073E,2026-06-21T11:22:26.051232,14.81669156,.0001341,97.8929,247.1755,88.1718,271.9648,0,U,49070,999,26200,.62438E-4,.439E-5,0
LANDSAT 9,2021-088A,2026-06-20T10:10:35.291712,14.57098947,.0001329,98.2280,241.5622,85.1905,274.9445,0,U,49260,999,25147,.62312E-4,.235E-5,0
CSG-2,2022-008A,2026-06-21T12:58:42.794976,14.82159517,.0001495,97.8890,356.0747,91.9346,268.2038,0,U,51444,999,23723,.79275E-4,.579E-5,0
GAOFEN-12 03,2022-069A,2026-06-21T12:21:46.773216,14.80040125,.0002215,97.8270,60.2755,100.7744,259.3718,0,U,52912,999,21525,.109E-3,.775E-5,0
SWOT,2022-173A,2026-06-20T10:02:00.348576,14.00169969,.0000286,77.6105,30.9486,91.4251,268.6933,0,U,54754,999,17960,.52339E-4,.75E-6,0
GAOFEN-12 04,2023-123A,2026-06-21T12:44:58.018848,14.80235393,.0001784,97.9119,90.4867,81.4546,278.6868,0,U,57654,999,15327,.94709E-4,.669E-5,0
PARS 1,2024-039Q,2026-06-21T12:32:07.455264,15.45802388,.0011535,97.4828,153.5785,98.8013,261.4543,0,U,59065,999,12931,.1918E-3,.9222E-4,0
RESURS-P 4,2024-061A,2026-06-21T12:12:00.644256,15.32151603,.000249,97.2751,120.3316,121.7094,238.4391,0,U,59371,999,12442,.77302E-4,.2324E-4,0
LEGION 1,2024-081A,2026-06-20T11:02:07.145088,15.16685063,.0009187,97.5015,249.2820,6.7145,353.4210,0,U,59625,999,11803,.1373E-3,.2623E-4,0
LEGION 2,2024-081B,2026-06-20T11:45:21.355200,15.16663670,.0010476,97.5015,249.4091,331.4775,28.5884,0,U,59626,999,11804,.14962E-3,.2864E-4,0
ALOS-4 (DAICHI-4),2024-123A,2026-06-21T13:18:41.992416,14.79476344,.0001631,97.9248,269.6674,96.6537,263.4860,0,U,60182,999,10652,.14012E-3,.995E-5,0
LEGION 3,2024-146A,2026-06-20T10:12:48.178368,15.16059013,.0008055,45.0028,13.1867,188.7532,171.3207,0,U,60452,999,10251,.19408E-3,.3536E-4,0
LEGION 4,2024-146B,2026-06-20T07:07:31.118880,15.16053228,.001348,45.0017,105.7874,324.8703,35.1285,0,U,60453,999,10134,.19653E-3,.3587E-4,0
SENTINEL-2C,2024-157A,2026-06-20T11:01:19.860096,14.30818579,.0000995,98.5692,246.1950,83.4152,276.7144,0,U,60989,999,9345,.43396E-4,.7E-6,0
IONOSFERA-M 1,2024-199A,2026-06-20T10:17:26.935008,14.22754851,.0002042,98.7170,44.5668,106.2287,253.9115,0,U,61735,999,12816,.29904E-4,.23E-6,0
IONOSFERA-M 2,2024-199B,2026-06-20T09:25:33.204288,14.22758106,.0000914,98.7169,44.4417,38.0352,322.0890,0,U,61736,999,13128,.30228E-4,.24E-6,0
PRSC-EO1,2025-012A,2026-06-21T13:02:24.221760,15.17653800,.000508,97.4221,244.9183,232.9814,127.0956,0,U,62725,999,7885,.27495E-3,.547E-4,0
BIOMASS,2025-090A,2026-06-20T10:37:21.847872,14.67536927,.0001448,98.0744,358.7127,95.6178,264.5192,0,U,63772,999,6116,.34623E-4,.148E-5,0
GOSAT-GW (IBUKI GW),2025-141A,2026-06-21T13:17:25.119744,14.67555276,.0001437,98.0573,109.7998,83.6135,276.5234,0,U,64694,999,5248,.91252E-4,.47E-5,0
