KAZSTSAT                
1 43783U 18099AB  26171.03293079  .00001425  00000+0  11946-3 0  9997
2 43783  97.4272 202.8318 0008602  62.2449 297.9646 14.99874388411735
SAUDISAT 5A             
1 43831U 18102A   26172.55228376  .00004160  00000+0  15433-3 0  9996
2 43831  97.3063 234.0493 0011211 115.7884 244.4513 15.28085390416346
SAUDISAT 5B             
1 43833U 18102C   26172.50492490  .00004101  00000+0  15100-3 0  9999
2 43833  97.3172 237.0803 0011895 117.9515 242.2930 15.28339783416459
GAOFEN-10R              
1 44622U 19066A   26172.53928659  .00000798  00000+0  10471-3 0  9994
2 44622  98.0503 126.1503 0006898 115.9819 244.2105 14.83068474363025
CARTOSAT-3              
1 44804U 19081A   26172.50423816  .00004302  00000+0  20654-3 0  9994
2 44804  97.4303 234.3026 0013542 134.6433 225.5909 15.19309359364120
GAOFEN-12 01            
1 44819U 19082A   26172.54051442  .00000258  00000+0  40353-4 0  9992
2 44819  97.8101 178.8051 0002130  65.6428 294.5007 14.80461284354738
CSG-1                   
1 44873U 19092A   26172.50704431  .00000268  00000+0  40246-4 0  9994
2 44873  97.8889 356.0469 0001452  89.7275 270.4105 14.82156000352118
NEMO-HD                 
1 46277U 20061F   26172.47021808  .00008740  00000+0  18934-3 0  9999
2 46277  97.1916 234.3801 0002107  78.3538 281.7948 15.44668071322644
SENTINEL-6A             
1 46984U 20086A   26171.28659686 -.00000041  00000+0  86498-4 0  9998
2 46984  66.0398 128.6148 0007932 270.1789  89.8317 12.80930002260728
CAS500-1                
1 47932U 21022A   26172.53913600  .00004767  00000+0  22335-3 0  9998
2 47932  97.3894  67.7042 0003219 277.4521  82.6348 15.20173434291425
GAOFEN-12 02            
1 48079U 21026A   26172.55203968  .00000238  00000+0  38176-4 0  9996
2 48079  97.9923 170.7148 0004005 204.2706 155.8318 14.80298823282409
PLEIADES NEO 3          
1 48268U 21034A   26172.50769237  .00001535  00000+0  20169-3 0  9999
2 48268  97.8927 247.2126 0001403  91.9001 268.2372 14.81675289278293
PLEIADES NEO 4          
1 49070U 21073E   26172.47391263  .00000439  00000+0  62438-4 0  9998
2 49070  97.8929 247.1755 0001341  88.1718 271.9648 14.81669156262003
LANDSAT 9               
1 49260U 21088A   26171.42401958  .00000235  00000+0  62312-4 0  9997
2 49260  98.2280 241.5622 0001329  85.1905 274.9445 14.57098947251475
CSG-2                   
1 51444U 22008A   26172.54077309  .00000579  00000+0  79275-4 0  9997
2 51444  97.8890 356.0747 0001495  91.9346 268.2038 14.82159517237233
GAOFEN-12 03            
1 52912U 22069A   26172.51512469  .00000775  00000+0  10900-3 0  9990
2 52912  97.8270  60.2755 0002215 100.7744 259.3718 14.80040125215257
SWOT                    
1 54754U 22173A   26171.41805959  .00000075  00000+0  52339-4 0  9995
2 54754  77.6105  30.9486 0000286  91.4251 268.6933 14.00169969179606
GAOFEN-12 04            
1 57654U 23123A   26172.53122707  .00000669  00000+0  94709-4 0  9996
2 57654  97.9119  90.4867 0001784  81.4546 278.6868 14.80235393153278
PARS 1                  
1 59065U 24039Q   26172.52230851  .00009222  00000+0  19180-3 0  9993
2 59065  97.4828 153.5785 0011535  98.8013 261.4543 15.45802388129318
RESURS-P 4              
1 59371U 24061A   26172.50834079  .00002324  00000+0  77302-4 0  9995
2 59371  97.2751 120.3316 0002490 121.7094 238.4391 15.32151603124423
LEGION 1                
1 59625U 24081A   26171.45980492  .00002623  00000+0  13730-3 0  9999
2 59625  97.5015 249.2820 0009187   6.7145 353.4210 15.16685063118033
LEGION 2                
1 59626U 24081B   26171.48983050  .00002864  00000+0  14962-3 0  9991
2 59626  97.5015 249.4091 0010476 331.4775  28.5884 15.16663670118044
ALOS-4 (DAICHI-4)       
1 60182U 24123A   26172.55465269  .00000995  00000+0  14012-3 0  9992
2 60182  97.9248 269.6674 0001631  96.6537 263.4860 14.79476344106527
LEGION 3                
1 60452U 24146A   26171.42555762  .00003536  00000+0  19408-3 0  9998
2 60452  45.0028  13.1867 0008055 188.7532 171.3207 15.16059013102517
LEGION 4                
1 60453U 24146B   26171.29688795  .00003587  00000+0  19653-3 0  9995
2 60453  45.0017 105.7874 0013480 324.8703  35.1285 15.16053228101348
SENTINEL-2C             
1 60989U 24157A   26171.45925764  .00000070  00000+0  43396-4 0  9995
2 60989  98.5692 246.1950 0000995  83.4152 276.7144 14.30818579 93454
IONOSFERA-M 1           
1 61735U 24199A   26171.42878397  .00000023  00000+0  29904-4 0  9994
2 61735  98.7170  44.5668 0002042 106.2287 253.9115 14.22754851128166
IONOSFERA-M 2           
1 61736U 24199B   26171.39274542  .00000024  00000+0  30228-4 0  9995
2 61736  98.7169  44.4417 0000914  38.0352 322.0890 14.22758106131289
PRSC-EO1                
1 62725U 25012A   26172.54333590  .00005470  00000+0  27495-3 0  9997
2 62725  97.4221 244.9183 0005080 232.9814 127.0956 15.17653800 78856
BIOMASS                 
1 63772U 25090A   26171.44261398  .00000148  00000+0  34623-4 0  9999
2 63772  98.0744 358.7127 0001448  95.6178 264.5192 14.67536927 61168
GOSAT-GW (IBUKI GW)     
1 64694U 25141A   26172.55376296  .00000470  00000+0  91252-4 0  9996
2 64694  98.0573 109.7998 0001437  83.6135 276.5234 14.67555276 52483
